[
    {
        "Altitude(m)": 617710.6428480808,
        "Argument of Periapsis(deg)": 0.0,
        "Eccentricity": 0.0,
        "Inclination(deg)": 60.0,
        "Latitude(deg)": -41.10266877035396,
        "Longitude(deg)": 149.96658680299913,
        "Mean Anomaly(deg)": -49.09089999999994,
        "RAAN(deg)": 280.0,
        "Satellite Name": "Test1 1251",
        "Satellite Number": 1251,
        "Semi-Major Axis(m)": 6980739.136638005,
        "Time(s)": 0
    },
    {
        "Altitude(m)": 617517.9414928614,
        "Argument of Periapsis(deg)": 0.00010418945913296404,
        "Eccentricity": 0.0,
        "Inclination(deg)": 60.0,
        "Latitude(deg)": -40.63687615788509,
        "Longitude(deg)": 150.46338117963285,
        "Mean Anomaly(deg)": -48.470793854538094,
        "RAAN(deg)": 279.99957995086027,
        "Satellite Name": "Test1 1251",
        "Satellite Number": 1251,
        "Semi-Major Axis(m)": 6980739.136638005,
        "Time(s)": 10
    }
]